[{"OBJECT_NAME":"STARLINK-6307","OBJECT_ID":"2023-065AC","EPOCH":"2026-03-09T10:33:40.277664","MEAN_MOTION":15.02551277,"ECCENTRICITY":0.00020122,"INCLINATION":43.0046,"RA_OF_ASC_NODE":198.9845,"ARG_OF_PERICENTER":288.6025,"MEAN_ANOMALY":71.4598,"EPHEMERIS_TYPE":0,"CLASSIFICATION_TYPE":"U","NORAD_CAT_ID":56529,"ELEMENT_SET_NO":999,"REV_AT_EPOCH":15673,"BSTAR":1.0166752e-5,"MEAN_MOTION_DOT":-6.6e-7,"MEAN_MOTION_DDOT":0},{"OBJECT_NAME":"VELOX-PII","OBJECT_ID":"2013-066Y","EPOCH":"2026-03-09T19:57:03.071520","MEAN_MOTION":14.92474173,"ECCENTRICITY":0.00523549,"INCLINATION":97.8641,"RA_OF_ASC_NODE":20.1898,"ARG_OF_PERICENTER":313.6731,"MEAN_ANOMALY":46.0154,"EPHEMERIS_TYPE":0,"CLASSIFICATION_TYPE":"U","NORAD_CAT_ID":39438,"ELEMENT_SET_NO":999,"REV_AT_EPOCH":66301,"BSTAR":0.00044125176,"MEAN_MOTION_DOT":4.587e-5,"MEAN_MOTION_DDOT":0}]
